[{"OBJECT_NAME":"KAZSTSAT","OBJECT_ID":"2018-099AB","EPOCH":"2026-03-09T14:51:18.118944","MEAN_MOTION":14.99620503,"ECCENTRICITY":0.0006528,"INCLINATION":97.4396,"RA_OF_ASC_NODE":105.0128,"ARG_OF_PERICENTER":11.1145,"MEAN_ANOMALY":349.0222,"EPHEMERIS_TYPE":0,"CLASSIFICATION_TYPE":"U","NORAD_CAT_ID":43783,"ELEMENT_SET_NO":999,"REV_AT_EPOCH":39638,"BSTAR":0.00011446,"MEAN_MOTION_DOT":1.354e-5,"MEAN_MOTION_DDOT":0},{"OBJECT_NAME":"STARLINK-36132","OBJECT_ID":"2025-293AB","EPOCH":"2026-03-09T11:34:34.435200","MEAN_MOTION":14.98312738,"ECCENTRICITY":0.00038358,"INCLINATION":70.0004,"RA_OF_ASC_NODE":95.1029,"ARG_OF_PERICENTER":273.1454,"MEAN_ANOMALY":86.9266,"EPHEMERIS_TYPE":0,"CLASSIFICATION_TYPE":"U","NORAD_CAT_ID":67028,"ELEMENT_SET_NO":999,"REV_AT_EPOCH":1485,"BSTAR":-0.00069178118,"MEAN_MOTION_DOT":-8.334e-5,"MEAN_MOTION_DDOT":0}]
